NORAD_CAT_ID,OBJECT_NAME,OBJECT_TYPE,EPOCH,MEAN_MOTION,ECCENTRICITY,INCLINATION,RA_OF_ASC_NODE,ARG_OF_PERICENTER,MEAN_ANOMALY,BSTAR,MEAN_MOTION_DOT,MEAN_MOTION_DDOT,TLE_LINE0,TLE_LINE1,TLE_LINE2,SEMIMAJOR_AXIS,PERIOD,APOGEE,PERIGEE,DECAYED
51986.0,STARLINK-3645,PAYLOAD,2024-06-24 08:47:16,15.08841058,0.0001149,53.2181,317.1759,104.0903,256.0217,9.5862e-05,1.238e-05,0.0,0 STARLINK-3645,1 51986U 22025AG  24176.36615797  .00001238  00000-0  95862-4 0  9992,2 51986  53.2181 317.1759 0001149 104.0903 256.0217 15.08841058128055,6917.877,95.437,540.537,538.947,0.0
51986.0,STARLINK-3645,PAYLOAD,2024-06-24 13:33:25,15.08839104,0.0001136,53.2182,316.2832,101.4255,258.6865,7.2184e-05,8.61e-06,0.0,0 STARLINK-3645,1 51986U 22025AG  24176.56488002  .00000861  00000-0  72184-4 0  9994,2 51986  53.2182 316.2832 0001136 101.4255 258.6865 15.08839104126992,6917.883,95.438,540.534,538.962,0.0
51986.0,STARLINK-3645,PAYLOAD,2024-06-24 16:44:11,15.08839742,0.00011,53.218,315.6885,96.6147,263.4971,7.0534e-05,8.35e-06,0.0,0 STARLINK-3645,1 51986U 22025AG  24176.69735964  .00000835  00000-0  70534-4 0  9998,2 51986  53.2180 315.6885 0001100  96.6147 263.4971 15.08839742127011,6917.881,95.438,540.507,538.985,0.0
51986.0,STARLINK-3645,PAYLOAD,2024-06-25 13:24:12,15.08839245,0.0001073,53.2176,311.8227,89.1151,270.9964,4.7673e-05,4.71e-06,0.0,0 STARLINK-3645,1 51986U 22025AG  24177.55848161  .00000471  00000-0  47673-4 0  9992,2 51986  53.2176 311.8227 0001073  89.1151 270.9964 15.08839245128233,6917.883,95.438,540.49,539.005,0.0
51986.0,STARLINK-3645,PAYLOAD,2024-06-25 16:34:58,15.08843099,0.0001165,53.2179,311.2283,84.1572,275.9553,7.7131e-05,9.4e-06,0.0,0 STARLINK-3645,1 51986U 22025AG  24177.69095859  .00000940  00000-0  77131-4 0  9998,2 51986  53.2179 311.2283 0001165  84.1572 275.9553 15.08843099127168,6917.871,95.437,540.542,538.93,0.0
51986.0,STARLINK-3645,PAYLOAD,2024-06-26 02:07:16,15.08853426,0.0001278,53.2179,309.4446,74.7655,285.3478,0.00023094,3.391e-05,0.0,0 STARLINK-3645,1 51986U 22025AG  24178.08838784  .00003391  00000-0  23094-3 0  9995,2 51986  53.2179 309.4446 0001278  74.7655 285.3478 15.08853426128314,6917.839,95.437,540.588,538.82,0.0
51986.0,STARLINK-3645,PAYLOAD,2024-06-27 13:05:46,15.08838456,0.0001115,53.2194,302.8988,87.2693,272.8427,-4.9686e-06,-3.67e-06,0.0,0 STARLINK-3645,1 51986U 22025AG  24179.54568084 -.00000367  00000-0 -49686-5 0  9999,2 51986  53.2194 302.8988 0001115  87.2693 272.8427 15.08838456128535,6917.885,95.438,540.521,538.979,0.0
51986.0,STARLINK-3645,PAYLOAD,2024-06-27 19:27:18,15.08849348,0.000109,53.2166,301.7127,113.3442,246.7665,1.1152e-06,-2.7e-06,0.0,0 STARLINK-3645,1 51986U 22025AG  24179.81063228 -.00000270  00000-0  11152-5 0  9998,2 51986  53.2166 301.7127 0001090 113.3442 246.7665 15.08849348128572,6917.852,95.437,540.471,538.963,0.0
51986.0,STARLINK-3645,PAYLOAD,2024-06-28 12:56:33,15.08840608,0.0001307,53.2165,298.4414,102.1901,257.9238,8.5851e-05,1.079e-05,0.0,0 STARLINK-3645,1 51986U 22025AG  24180.53927570  .00001079  00000-0  85851-4 0  9991,2 51986  53.2165 298.4414 0001307 102.1901 257.9238 15.08840608128681,6917.879,95.438,540.648,538.839,0.0
51986.0,STARLINK-3645,PAYLOAD,2024-06-28 14:31:56,15.08841065,0.0001535,53.2185,298.1435,107.7396,252.3764,0.00013982,1.938e-05,0.0,0 STARLINK-3645,1 51986U 22025AG  24180.60551225  .00001938  00000-0  13982-3 0  9998,2 51986  53.2185 298.1435 0001535 107.7396 252.3764 15.08841065127607,6917.877,95.437,540.804,538.68,0.0
51986.0,STARLINK-3645,PAYLOAD,2024-06-29 12:47:21,15.0882212,0.0001329,53.2171,293.9834,100.0493,260.0649,-7.4725e-05,-1.476e-05,0.0,0 STARLINK-3645,1 51986U 22025AG  24181.53289170 -.00001476  00000-0 -74725-4 0  9990,2 51986  53.2171 293.9834 0001329 100.0493 260.0649 15.08822120128838,6917.935,95.439,540.719,538.881,0.0
51986.0,STARLINK-3645,PAYLOAD,2024-06-29 14:22:44,15.08825462,0.0001165,53.2173,293.6864,99.5806,260.5317,-7.8743e-05,-1.54e-05,0.0,0 STARLINK-3645,1 51986U 22025AG  24181.59913006 -.00001540  00000-0 -78743-4 0  9994,2 51986  53.2173 293.6864 0001165  99.5806 260.5317 15.08825462127757,6917.925,95.438,540.596,538.984,0.0
51986.0,STARLINK-3645,PAYLOAD,2024-06-29 23:55:02,15.08837743,0.0001228,53.2186,291.9021,101.7543,258.3587,2.5859e-05,1.24e-06,0.0,0 STARLINK-3645,1 51986U 22025AG  24181.99656149  .00000124  00000-0  25859-4 0  9995,2 51986  53.2186 291.9021 0001228 101.7543 258.3587 15.08837743128908,6917.887,95.438,540.602,538.903,0.0
51986.0,STARLINK-3645,PAYLOAD,2024-06-30 11:02:45,15.08827226,0.000124,53.2182,289.8256,98.4858,261.6274,7.8507e-05,9.61e-06,0.0,0 STARLINK-3645,1 51986U 22025AG  24182.46025049  .00000961  00000-0  78507-4 0  9994,2 51986  53.2182 289.8256 0001240  98.4858 261.6274 15.08827226128977,6917.919,95.438,540.642,538.927,0.0
51986.0,STARLINK-3645,PAYLOAD,2024-06-30 14:13:31,15.08829161,0.0001225,53.2179,289.2316,95.2162,264.897,9.4467e-05,1.215e-05,0.0,0 STARLINK-3645,1 51986U 22025AG  24182.59273011  .00001215  00000-0  94467-4 0  9998,2 51986  53.2179 289.2316 0001225  95.2162 264.8970 15.08829161127900,6917.914,95.438,540.626,538.931,0.0
51986.0,STARLINK-3645,PAYLOAD,2024-06-30 23:45:49,15.08853254,0.0001296,53.2185,287.4404,94.7892,265.3248,0.0001037,1.363e-05,0.0,0 STARLINK-3645,1 51986U 22025AG  24182.99015326  .00001363  00000-0  10370-3 0  9999,2 51986  53.2185 287.4404 0001296  94.7892 265.3248 15.08853254129059,6917.84,95.437,540.601,538.808,0.0
51986.0,STARLINK-3645,PAYLOAD,2024-07-01 12:28:55,15.08828203,0.0001267,53.2168,285.0644,102.2816,257.8318,0.00015261,2.141e-05,0.0,0 STARLINK-3645,1 51986U 22025AG  24183.52009129  .00002141  00000-0  15261-3 0  9992,2 51986  53.2168 285.0644 0001267 102.2816 257.8318 15.08828203129138,6917.916,95.438,540.658,538.905,0.0
51986.0,STARLINK-3645,PAYLOAD,2024-07-01 14:04:19,15.08828888,0.0001198,53.2161,284.768,107.7822,252.3301,0.00017288,2.464e-05,0.0,0 STARLINK-3645,1 51986U 22025AG  24183.58633123  .00002464  00000-0  17288-3 0  9994,2 51986  53.2161 284.7680 0001198 107.7822 252.3301 15.08828888128058,6917.914,95.438,540.608,538.951,0.0
51986.0,STARLINK-3645,PAYLOAD,2024-07-01 23:36:37,15.08843196,0.0001185,53.2161,282.9826,95.888,264.2247,0.00027604,4.108e-05,0.0,0 STARLINK-3645,1 51986U 22025AG  24183.98376484  .00004108  00000-0  27604-3 0  9992,2 51986  53.2161 282.9826 0001185  95.8880 264.2247 15.08843196129205,6917.871,95.437,540.555,538.916,0.0
51986.0,STARLINK-3645,PAYLOAD,2024-07-02 12:19:43,15.08829074,0.0001024,53.2152,280.6005,81.1734,278.9374,-7.1591e-05,-1.427e-05,0.0,0 STARLINK-3645,1 51986U 22025AG  24184.51369439 -.00001427  00000-0 -71591-4 0  9992,2 51986  53.2152 280.6005 0001024  81.1734 278.9374 15.08829074129287,6917.914,95.438,540.487,539.07,0.0
51986.0,STARLINK-3645,PAYLOAD,2024-07-02 13:55:05,15.08840908,8.11e-05,53.2146,280.3026,108.683,251.425,9.4566e-05,1.218e-05,0.0,0 STARLINK-3645,1 51986U 22025AG  24184.57992764  .00001218  00000-0  94566-4 0  9994,2 51986  53.2146 280.3026 0000811 108.6830 251.4250 15.08840908128204,6917.878,95.437,540.304,539.182,0.0
51986.0,STARLINK-3645,PAYLOAD,2024-07-03 15:21:15,15.08846503,0.0001054,53.2158,275.5433,95.009,265.1022,0.00017046,2.427e-05,0.0,0 STARLINK-3645,1 51986U 22025AG  24185.63976712  .00002427  00000-0  17046-3 0  9997,2 51986  53.2158 275.5433 0001054  95.0090 265.1022 15.08846503129456,6917.861,95.437,540.455,538.996,0.0
51986.0,STARLINK-3645,PAYLOAD,2024-07-04 12:01:17,15.08836268,9.66e-05,53.2145,271.6818,89.6101,270.5002,4.9494e-05,5e-06,0.0,0 STARLINK-3645,1 51986U 22025AG  24186.50089401  .00000500  00000-0  49494-4 0  9997,2 51986  53.2145 271.6818 0000966  89.6101 270.5002 15.08836268129588,6917.892,95.438,540.425,539.089,0.0
51986.0,STARLINK-3645,PAYLOAD,2024-07-04 15:12:03,15.08842538,0.0001068,53.2153,271.0852,102.3835,257.7277,0.00012141,1.645e-05,0.0,0 STARLINK-3645,1 51986U 22025AG  24186.63337051  .00001645  00000-0  12141-3 0  9997,2 51986  53.2153 271.0852 0001068 102.3835 257.7277 15.08842538128510,6917.873,95.437,540.476,538.999,0.0
51986.0,STARLINK-3645,PAYLOAD,2024-07-04 23:08:58,15.08853168,0.0001051,53.2155,269.5986,115.7413,244.3688,0.00019782,2.863e-05,0.0,0 STARLINK-3645,1 51986U 22025AG  24186.96456453  .00002863  00000-0  19782-3 0  9992,2 51986  53.2155 269.5986 0001051 115.7413 244.3688 15.08853168129659,6917.84,95.437,540.432,538.978,0.0
51986.0,STARLINK-3645,PAYLOAD,2024-07-05 11:52:03,15.08848926,0.0001505,53.2156,267.2182,98.7893,261.327,0.00018487,2.656e-05,0.0,0 STARLINK-3645,1 51986U 22025AG  24187.49448692  .00002656  00000-0  18487-3 0  9998,2 51986  53.2156 267.2182 0001505  98.7893 261.3270 15.08848926129730,6917.853,95.437,540.759,538.677,0.0
51986.0,STARLINK-3645,PAYLOAD,2024-07-06 11:42:51,15.0883542,0.0001092,53.2156,262.7597,88.1287,271.983,0.00011887,1.604e-05,0.0,0 STARLINK-3645,1 51986U 22025AG  24188.48809252  .00001604  00000-0  11887-3 0  9990,2 51986  53.2156 262.7597 0001092  88.1287 271.9830 15.08835420129881,6917.894,95.438,540.515,539.004,0.0
51986.0,STARLINK-3645,PAYLOAD,2024-07-06 14:53:37,15.0883749,0.0001199,53.2157,262.1649,87.7279,272.3851,-3.2287e-06,-3.39e-06,0.0,0 STARLINK-3645,1 51986U 22025AG  24188.62057110 -.00000339  00000-0 -32287-5 0  9999,2 51986  53.2157 262.1649 0001199  87.7279 272.3851 15.08837490128817,6917.888,95.438,540.583,538.924,0.0
51986.0,STARLINK-3645,PAYLOAD,2024-07-07 09:58:15,15.0883583,0.0001205,53.2163,258.5963,86.8777,273.2353,3.4301e-05,2.58e-06,0.0,0 STARLINK-3645,1 51986U 22025AG  24189.41545390  .00000258  00000-0  34301-4 0  9995,2 51986  53.2163 258.5963 0001205  86.8777 273.2353 15.08835830128939,6917.893,95.438,540.592,538.925,0.0
51986.0,STARLINK-3645,PAYLOAD,2024-07-08 05:02:52,15.0883626,0.000121,53.2161,255.0271,87.0048,273.1083,0.00012367,1.681e-05,0.0,0 STARLINK-3645,1 51986U 22025AG  24190.21033193  .00001681  00000-0  12367-3 0  9996,2 51986  53.2161 255.0271 0001210  87.0048 273.1083 15.08836260130144,6917.892,95.438,540.594,538.92,0.0
